STARLINK-37491          
1 69166U 26111U   26158.25005787 -.00083599  00000+0 -48101-3 0  9997
2 69166  53.1590 201.3869 0000927 108.2814 107.2416 15.78116147  3953
STARLINK-37474          
1 69167U 26111V   26158.25005787 -.00087453  00000+0 -50354-3 0  9994
2 69167  53.1593 201.3566 0000982  94.7248 135.3110 15.78118032  3950
STARLINK-37469          
1 69168U 26111W   26158.25005787 -.02744515  00000+0 -23939-1 0  9993
2 69168  53.1593 201.3509 0001390  81.5532 151.1159 15.71917534  3958
STARLINK-37515          
1 69169U 26111X   26158.25005787  .00028592  00000+0  16789-3 0  9997
2 69169  53.1594 201.3373 0001332  95.9275 143.4451 15.78064601  3952
STARLINK-37437          
1 69170U 26111Y   26157.69752450  .00149746  00000+0  74851-3 0  9991
2 69170  53.1586 204.0510 0000732  63.0627 297.0470 15.80891266  2604
STARLINK-37392          
1 69171U 26111Z   26158.25005787 -.00142071  00000+0 -82506-3 0  9991
2 69171  53.1593 201.2570 0000879  46.4819 231.5370 15.78134917  3959
STARLINK-37472          
1 69172U 26111AA  26158.00004630 -.02324166  00000+0 -13744-1 0  9996
2 69172  53.1586 202.4770 0000868  95.4912 214.4090 15.80602017  3912
STARLINK-37461          
1 69173U 26111AB  26158.25005787 -.02601958  00000+0 -20895-1 0  9990
2 69173  53.1595 201.3141 0001077  98.4161 151.7861 15.73634634  3950
STARLINK-37333          
1 69174U 26111AC  26158.25005787 -.00067832  00000+0 -38893-3 0  9995
2 69174  53.1589 201.3182 0000994 107.6810 140.8574 15.78111256  3955
STARLINK-37385          
1 69175U 26111AD  26158.25005787 -.02617263  00000+0 -19286-1 0  9990
2 69175  53.1594 201.2918 0001063 111.4911 149.5444 15.75611224  3950
STARLINK-37414          
1 69176U 26111AE  26158.25005787 -.00073322  00000+0 -42144-3 0  9992
2 69176  53.1592 201.2663 0001310  92.8440 180.5622 15.78086692  3951
STRIX-7                 
1 69177U 26112A   26157.72628656  .00004804  00000+0  38236-3 0  9995
2 69177  44.9065 247.3905 0024224 348.2422  11.7882 15.01379808  2303
SHENZHOU-23 (SZ-23)     
1 69180U 26113A   26157.67381585  .00028669  00000+0  34211-3 0  9995
2 69180  41.4692  25.9625 0009150 355.7318   4.3441 15.60361832291258
STARLINK-37380          
1 69182U 26114A   26158.25005787  .00095817  00000+0  54987-3 0  9991
2 69182  53.1588 252.1024 0001357 120.6341  90.3211 15.78039878  3215
STARLINK-37089          
1 69183U 26114B   26158.25005787  .00125878  00000+0  71906-3 0  9993
2 69183  53.1588 252.0913 0001143  96.1501 120.1112 15.78027483  3211
STARLINK-37428          
1 69184U 26114C   26158.25005787  .00119847  00000+0  68533-3 0  9995
2 69184  53.1590 252.0754 0001087  95.7621 128.5044 15.78025814  3215
STARLINK-37237          
1 69185U 26114D   26158.25005787  .00063322  00000+0  36730-3 0  9996
2 69185  53.1590 252.0421 0001350 110.3880 129.6536 15.77964806  3211
STARLINK-37365          
1 69186U 26114E   26158.25005787  .00144555  00000+0  82405-3 0  9995
2 69186  53.1589 252.0461 0001195  91.4124 146.7286 15.78009055  3210
STARLINK-37209          
1 69187U 26114F   26158.25005787  .00126236  00000+0  72149-3 0  9996
2 69187  53.1590 252.0371 0001280  92.3855 150.1439 15.78014206  3212
STARLINK-37359          
1 69188U 26114G   26158.25005787  .00117667  00000+0  67321-3 0  9991
2 69188  53.1590 252.0321 0001025 100.7152 144.3185 15.78022063  3212
STARLINK-37440          
1 69189U 26114H   26158.25005787 -.01430967  00000+0 -76724-2 0  9992
2 69189  53.1581 251.6357 0000858  83.9980 352.2581 15.82205268  3216
STARLINK-37282          
1 69190U 26114J   26158.25005787  .00076856  00000+0  38993-3 0  9991
2 69190  53.1589 251.9757 0001440  96.4377 175.6727 15.80846713  3213
STARLINK-37422          
1 69191U 26114K   26158.25005787  .00128948  00000+0  64823-3 0  9993
2 69191  53.1592 251.9557 0001521 136.8718 145.0456 15.80836205  3219
STARLINK-37424          
1 69192U 26114L   26158.25005787 -.01631951  00000+0 -92736-2 0  9993
2 69192  53.1591 251.9677 0000673 103.0991 173.1896 15.81361081  3214
STARLINK-36666          
1 69193U 26114M   26158.25005787  .00146374  00000+0  73425-3 0  9996
2 69193  53.1589 251.9586 0001289  89.6335 191.0198 15.80825128  3216
STARLINK-37355          
1 69194U 26114N   26158.25005787  .00143654  00000+0  72048-3 0  9995
2 69194  53.1590 251.9502 0001109  98.0122 186.9000 15.80837748  3212
STARLINK-37166          
1 69195U 26114P   26158.25005787  .00084455  00000+0  42731-3 0  9995
2 69195  53.1593 251.9319 0001149  89.9789 203.4687 15.80870105  3214
