OBJECT_NAME,OBJECT_ID,EPOCH,MEAN_MOTION,ECCENTRICITY,INCLINATION,RA_OF_ASC_NODE,ARG_OF_PERICENTER,MEAN_ANOMALY,EPHEMERIS_TYPE,CLASSIFICATION_TYPE,NORAD_CAT_ID,ELEMENT_SET_NO,REV_AT_EPOCH,BSTAR,MEAN_MOTION_DOT,MEAN_MOTION_DDOT
STARLINK-37491,2026-111U,2026-06-07T06:00:04.999968,15.78116147,.00009278,53.1590,201.3869,108.2814,107.2416,0,U,69166,999,395,-.48101261E-3,-.83599E-3,0
STARLINK-37474,2026-111V,2026-06-07T06:00:04.999968,15.78118032,.00009826,53.1593,201.3566,94.7248,135.3110,0,U,69167,999,395,-.50354497E-3,-.87453E-3,0
STARLINK-37469,2026-111W,2026-06-07T06:00:04.999968,15.71917534,.000139,53.1593,201.3509,81.5532,151.1159,0,U,69168,999,395,-.23939254E-1,-.2744515E-1,0
STARLINK-37515,2026-111X,2026-06-07T06:00:04.999968,15.78064601,.00013325,53.1594,201.3373,95.9275,143.4451,0,U,69169,999,395,.16788884E-3,.28592E-3,0
STARLINK-37437,2026-111Y,2026-06-06T16:44:26.116800,15.80891266,.00007328,53.1586,204.0510,63.0627,297.0470,0,U,69170,999,260,.74850576E-3,.149746E-2,0
STARLINK-37392,2026-111Z,2026-06-07T06:00:04.999968,15.78134917,.00008794,53.1593,201.2570,46.4819,231.5370,0,U,69171,999,395,-.82506477E-3,-.142071E-2,0
STARLINK-37472,2026-111AA,2026-06-07T00:00:04.000320,15.80602017,.00008679,53.1586,202.4770,95.4912,214.4090,0,U,69172,999,391,-.13744344E-1,-.2324166E-1,0
STARLINK-37461,2026-111AB,2026-06-07T06:00:04.999968,15.73634634,.00010773,53.1595,201.3141,98.4161,151.7861,0,U,69173,999,395,-.20895071E-1,-.2601958E-1,0
STARLINK-37333,2026-111AC,2026-06-07T06:00:04.999968,15.78111256,.00009941,53.1589,201.3182,107.6810,140.8574,0,U,69174,999,395,-.38893023E-3,-.67832E-3,0
STARLINK-37385,2026-111AD,2026-06-07T06:00:04.999968,15.75611224,.00010639,53.1594,201.2918,111.4911,149.5444,0,U,69175,999,395,-.1928636E-1,-.2617263E-1,0
STARLINK-37414,2026-111AE,2026-06-07T06:00:04.999968,15.78086692,.00013102,53.1592,201.2663,92.8440,180.5622,0,U,69176,999,395,-.42143904E-3,-.73322E-3,0
STRIX-7,2026-112A,2026-06-06T17:25:51.158784,15.01379808,.00242244,44.9065,247.3905,348.2422,11.7882,0,U,69177,999,230,.38236417E-3,.4804E-4,0
SHENZHOU-23 (SZ-23),2026-113A,2026-06-06T16:10:17.689440,15.60361832,.00091504,41.4692,25.9625,355.7318,4.3441,0,U,69180,999,29125,.3421058E-3,.28669E-3,0
STARLINK-37380,2026-114A,2026-06-07T06:00:04.999968,15.78039878,.00013575,53.1588,252.1024,120.6341,90.3211,0,U,69182,999,321,.54987494E-3,.95817E-3,0
STARLINK-37089,2026-114B,2026-06-07T06:00:04.999968,15.78027483,.00011431,53.1588,252.0913,96.1501,120.1112,0,U,69183,999,321,.71905507E-3,.125878E-2,0
STARLINK-37428,2026-114C,2026-06-07T06:00:04.999968,15.78025814,.0001087,53.1590,252.0754,95.7621,128.5044,0,U,69184,999,321,.68532749E-3,.119847E-2,0
STARLINK-37237,2026-114D,2026-06-07T06:00:04.999968,15.77964806,.00013508,53.1590,252.0421,110.3880,129.6536,0,U,69185,999,321,.36730288E-3,.63322E-3,0
STARLINK-37365,2026-114E,2026-06-07T06:00:04.999968,15.78009055,.00011953,53.1589,252.0461,91.4124,146.7286,0,U,69186,999,321,.82404996E-3,.144555E-2,0
STARLINK-37209,2026-114F,2026-06-07T06:00:04.999968,15.78014206,.00012806,53.1590,252.0371,92.3855,150.1439,0,U,69187,999,321,.721487E-3,.126236E-2,0
STARLINK-37359,2026-114G,2026-06-07T06:00:04.999968,15.78022063,.0001025,53.1590,252.0321,100.7152,144.3185,0,U,69188,999,321,.67321201E-3,.117667E-2,0
STARLINK-37440,2026-114H,2026-06-07T06:00:04.999968,15.82205268,.00008588,53.1581,251.6357,83.9980,352.2581,0,U,69189,999,321,-.7672408E-2,-.1430967E-1,0
STARLINK-37282,2026-114J,2026-06-07T06:00:04.999968,15.80846713,.00014408,53.1589,251.9757,96.4377,175.6727,0,U,69190,999,321,.38993287E-3,.76856E-3,0
STARLINK-37422,2026-114K,2026-06-07T06:00:04.999968,15.80836205,.00015213,53.1592,251.9557,136.8718,145.0456,0,U,69191,999,321,.64822694E-3,.128948E-2,0
STARLINK-37424,2026-114L,2026-06-07T06:00:04.999968,15.81361081,.00006738,53.1591,251.9677,103.0991,173.1896,0,U,69192,999,321,-.92736147E-2,-.1631951E-1,0
STARLINK-36666,2026-114M,2026-06-07T06:00:04.999968,15.80825128,.00012891,53.1589,251.9586,89.6335,191.0198,0,U,69193,999,321,.73424592E-3,.146374E-2,0
STARLINK-37355,2026-114N,2026-06-07T06:00:04.999968,15.80837748,.00011099,53.1590,251.9502,98.0122,186.9000,0,U,69194,999,321,.72048081E-3,.143654E-2,0
STARLINK-37166,2026-114P,2026-06-07T06:00:04.999968,15.80870105,.00011499,53.1593,251.9319,89.9789,203.4687,0,U,69195,999,321,.42730821E-3,.84455E-3,0
